HORYU-4                 
1 41340U 16012D   20343.26514130  .00001009  00000-0  69191-4 0  9996
2 41340  31.0060 304.7914 0013781  74.6571 285.5587 15.01667167264026
E-ST@R-II               
1 41459U 16025D   20344.45779087  .00002582  00000-0  13159-3 0  9996
2 41459  98.1197 103.7985 0162315 343.2040  16.3844 15.07079396253796
AAUSAT 4                
1 41460U 16025E   20344.31423671  .00003652  00000-0  17761-3 0  9990
2 41460  98.1174 106.6426 0150713 330.2555  29.0039 15.09668297254010
BEESAT-4                
1 41619U 16040W   20344.11601777  .00003283  00000-0  13580-3 0  9991
2 41619  97.2987  39.3482 0009237 286.0004  74.0217 15.24617479236003
CANX-7                  
1 41788U 16059F   20344.24850192  .00012390  00000-0  15779-2 0  9999
2 41788  98.2557  76.8879 0029296 109.5049 250.9406 14.81391361225661
RAVAN                   
1 41849U 16067B   20344.27595656  .00001915  00000-0  16402-3 0  9996
2 41849  97.9489  97.2702 0009218  34.6676 325.5145 14.98773363222803
CELTEE 1                
1 41850U 16067C   20343.56682216  .00000197  00000-0  22245-4 0  9992
2 41850  97.9399  93.7395 0009320  34.3367 325.8455 14.97295775222556
OPTICUBE 04             
1 41851U 16067D   20344.26416737  .00000981  00000-0  90477-4 0  9997
2 41851  97.9395  93.9661 0009711  37.9819 322.2085 14.97005352222635
AEROCUBE 8D             
1 41852U 16067E   20344.27964736  .00000411  00000-0  40984-4 0  9992
2 41852  97.9400  93.8304 0010532  36.0182 324.1746 14.97045000222619
AEROCUBE 8C             
1 41853U 16067F   20344.24848476  .00000886  00000-0  82264-4 0  9995
2 41853  97.9386  93.6857 0010476  37.3812 322.8136 14.97003183222608
PROMETHEUS 2-1          
1 41854U 16067G   20344.24438766  .00001112  00000-0  10084-3 0  9996
2 41854  97.9394  94.1291 0010568  34.9641 325.2272 14.97392550222620
PROMETHEUS 2-3          
1 41855U 16067H   20344.31050766  .00001117  00000-0  10124-3 0  9995
2 41855  97.9396  94.2377 0010750  34.9811 325.2115 14.97404717222637
INS-1B                  
1 41954U 17008G   20344.27873285  .00003284  00000-0  13289-3 0  9997
2 41954  97.3347  45.3905 0010094  51.5796 308.6347 15.25356832212018
BGUSAT                  
1 41999U 17008BD  20343.15901331  .00005289  00000-0  19327-3 0  9992
2 41999  97.3486  49.4769 0009003  62.0691 298.1459 15.28485684211470
DIDO-2                  
1 42000U 17008BE  20343.43146498  .00001778  00000-0  74367-4 0  9997
2 42000  97.3352  44.9855 0009919  70.8160 289.4150 15.24843153211270
PEASSS                  
1 42015U 17008BV  20344.25705457  .00002980  00000-0  11815-3 0  9994
2 42015  97.3383  47.7695 0007804  71.3398 288.8687 15.26137650212003
AL-FARABI 1             
1 42016U 17008BW  20344.17543581  .00003456  00000-0  13258-3 0  9996
2 42016  97.3422  49.0446 0007546  70.6570 289.5484 15.27128245212187
NAYIF-1 (EO-88)         
1 42017U 17008BX  20343.23197258  .00003187  00000-0  12233-3 0  9992
2 42017  97.3415  48.1256 0007650  72.8380 287.3696 15.27166700212064
UCLSAT                  
1 42765U 17036A   20343.57867031  .00002886  00000-0  12159-3 0  9995
2 42765  97.2790  32.9607 0012473 127.2960 232.9417 15.24060986193092
LITUANICASAT-2          
1 42768U 17036D   20343.41223931  .00004413  00000-0  17934-3 0  9990
2 42768  97.2856  33.0874 0015766 119.2755 241.0061 15.24955372192342
AALTO-1                 
1 42775U 17036L   20344.14075778  .00001991  00000-0  89438-4 0  9990
2 42775  97.2758  30.8089 0015136 121.6996 238.5718 15.22182255192248
URSA MAIOR              
1 42776U 17036M   20343.38461026  .00001796  00000-0  80476-4 0  9997
2 42776  97.2775  30.4409 0014948 123.7483 236.5180 15.22396864192147
COMPASS 2               
1 42777U 17036N   20343.59020333  .00003670  00000-0  15118-3 0  9996
2 42777  97.2841  33.5947 0013519 119.5627 240.6961 15.24634135192320
DIAMOND RED             
1 42783U 17036U   20344.24725273  .00002241  00000-0  97265-4 0  9998
2 42783  97.2789  32.6888 0013228 128.0457 232.1976 15.23269212192359
PEGASUS                 
1 42784U 17036V   20343.44383765  .00002429  00000-0  10386-3 0  9992
2 42784  97.2795  32.4467 0013022 129.1266 231.1132 15.23706939192265
DIAMOND GREEN           
1 42785U 17036W   20343.58937742  .00002230  00000-0  96811-4 0  9996
2 42785  97.2792  32.0917 0013074 130.6472 229.5904 15.23264765192323
DIAMOND BLUE            
1 42786U 17036X   20344.37663289  .00002323  00000-0  10073-3 0  9995
2 42786  97.2792  32.8494 0012969 128.3406 231.8999 15.23269457192362
NUDTSAT                 
1 42787U 17036Y   20344.52143185  .00005038  00000-0  20262-3 0  9998
2 42787  97.2834  35.3244 0011897 118.0974 242.1418 15.25288284192379
SUCHAI                  
1 42788U 17036Z   20343.59817323  .00003114  00000-0  12982-3 0  9990
2 42788  97.2805  33.3570 0012573 126.5091 233.7307 15.24351931192400
SKCUBE                  
1 42789U 17036AA  20343.40146976  .00002708  00000-0  11397-3 0  9997
2 42789  97.2798  32.9603 0012454 127.4969 232.7403 15.24150667192281
VZLUSAT-1               
1 42790U 17036AB  20343.59413942  .00003916  00000-0  15834-3 0  9991
2 42790  97.2829  34.4121 0011979 124.0371 236.2007 15.25242741192387
ROBUSTA-1B              
1 42792U 17036AD  20344.18599791  .00003107  00000-0  12951-3 0  9995
2 42792  97.2802  34.0309 0012077 125.0882 235.1490 15.24364547192430
CICERO 6                
1 42793U 17036AE  20344.32156747  .00002159  00000-0  93164-4 0  9994
2 42793  97.2775  33.3228 0011428 127.2108 233.0174 15.23528914192486
D-SAT                   
1 42794U 17036AF  20344.02693395  .00000783  00000-0  72401-4 0  9999
2 42794  97.4775   7.8911 0126926 141.6529 219.3800 14.91390056188713
CORVUS BC2              
1 42846U 17042X   20344.19807354  .00000536  00000-0  57745-4 0  9994
2 42846  97.4973 219.6185 0010964  59.1953 301.0345 14.92188631185462
CORVUS BC1              
1 42847U 17042Y   20344.31596852  .00000257  00000-0  30360-4 0  9991
2 42847  97.4975 219.9327 0010598  58.3241 301.9011 14.92290819185483
MIRATA                  
1 43015U 17073C   20344.26165549  .00001800  00000-0  14342-3 0  9998
2 43015  97.7130 249.7912 0251128 197.8477 161.3797 14.80112005165073
MAKERSAT 0              
1 43016U 17073D   20344.27987862  .00001274  00000-0  10343-3 0  9992
2 43016  97.7165 249.9441 0254347 199.3108 159.8333 14.79548344165047
DELLINGR (RBLE)         
1 43021U 98067NJ  20343.50881517  .00048346  00000-0  27424-3 0  9994
2 43021  51.6322 106.5773 0002077 331.4425  28.6462 15.78536164174273
AEROCUBE 7B (OCSD B)    
1 43042U 17071F   20344.21908397  .00008828  00000-0  18988-3 0  9994
2 43042  51.6368 288.1121 0003508 341.0224  19.0631 15.45447474169381
AEROCUBE 7C (OCSD C)    
1 43043U 17071G   20344.29035430  .00009020  00000-0  19416-3 0  9994
2 43043  51.6370 287.8532 0003812 344.6492  15.4379 15.45394989169360
CHEFSAT                 
1 43044U 17071H   20344.36046748  .00024774  00000-0  40628-3 0  9999
2 43044  51.6360 265.4216 0002547   7.8214 352.2815 15.52291882169672
ASGARDIA 1              
1 43049U 17071N   20343.24868540  .00008164  00000-0  17699-3 0  9999
2 43049  51.6385 292.2425 0002062  13.9596 346.1448 15.45326117169213
ISARA                   
1 43050U 17071P   20344.22220559  .00018800  00000-0  32794-3 0  9993
2 43050  51.6343 270.3297 0001760  43.6508 316.4621 15.50741297169589
PROPCUBE 2 (FAUNA)      
1 43052U 17071R   20343.88879228  .00008638  00000-0  18288-3 0  9999
2 43052  51.6372 286.7799 0001940  16.0504 344.0545 15.45946066169331
CORVUS BC3              
1 43118U 18004H   20344.20215524  .00002136  00000-0  91779-4 0  9993
2 43118  97.4269  52.8976 0010970 151.0220 209.1628 15.23726479161609
MICROMAS-2A             
1 43131U 18004W   20344.18364251  .00004361  00000-0  17173-3 0  9994
2 43131  97.4330  55.2911 0009662 147.1352 213.0489 15.26108035161735
SPACEBEE-4              
1 43139U 18004AE  20344.31606341  .00006305  00000-0  23499-3 0  9994
2 43139  97.4378  57.0765 0009055 146.4415 213.7399 15.27766849161832
SPACEBEE-3              
1 43140U 18004AF  20344.21039556  .00007839  00000-0  28099-3 0  9997
2 43140  97.4398  57.9700 0008709 144.4583 215.7239 15.28971098161888
SPACEBEE-2              
1 43141U 18004AG  20344.28150822  .00008636  00000-0  30537-3 0  9991
2 43141  97.4413  58.4245 0008654 143.3768 216.8065 15.29386169161912
SPACEBEE-1              
1 43142U 18004AH  20343.67993626  .00009429  00000-0  32827-3 0  9996
2 43142  97.4420  58.2023 0008559 144.7953 215.3854 15.29864365161838
CICERO 7                
1 43143U 18004AJ  20344.18319280  .00004120  00000-0  16260-3 0  9998
2 43143  97.4307  55.4251 0007787 153.6682 206.4954 15.26080753161756
GOMX-4B                 
1 43196U 18015E   20344.35245749  .00002412  00000-0  10040-3 0  9997
2 43196  97.4602 111.8466 0017793 204.2037 155.8366 15.24609155158540
GOMX-4A                 
1 43197U 18015F   20343.69927102  .00002324  00000-0  96072-4 0  9996
2 43197  97.4601 111.3454 0017981 208.2651 264.5733 15.24878090158460
UBAKUSAT                
1 43467U 98067NQ  20344.30317148  .00328416  58166-4  54830-3 0  9991
2 43467  51.6273  92.0064 0006698 339.0183  21.0552 16.02332782147806
TEMPEST-D               
1 43547U 98067NV  20343.82164033  .00043476  00000-0  38325-3 0  9990
2 43547  51.6338 149.3478 0004097 337.7511  22.3307 15.68263279136819
RAINCUBE                
1 43548U 98067NW  20344.36004246  .00408114  85906-4  63639-3 0  9992
2 43548  51.6238 100.5809 0007421 335.1581  24.9072 16.03438755137955
HALOSAT                 
1 43549U 98067NX  20343.83464026  .00200495  26868-4  49931-3 0  9993
2 43549  51.6317 107.0513 0004852 337.5731  22.5064 15.95399056137388
EQUISAT                 
1 43552U 98067PA  20344.35694710  .00367520  70105-4  62393-3 0  9993
2 43552  51.6223  99.9443 0006728 345.6074  14.4744 16.02032830137897
